KUIPER-00500            
1 68882U 26095U   26191.26060754  .00000089  00000+0  40664-4 0  9993
2 68882  51.8990 148.6269 0001520  32.0190 328.0864 14.79920123 11039
KUIPER-00502            
1 68883U 26095V   26191.25002315 -.00302653  00000+0 -92809-2 0  9992
2 68883  51.8789 130.6681 0007532  31.4260 196.7494 15.34427096  4860
KUIPER-00503            
1 68884U 26095W   26190.82435557  .00001403  00000+0  21313-3 0  9993
2 68884  51.9008 148.0452 0000435 152.8721 207.2264 14.79910910 11007
KUIPER-00504            
1 68885U 26095X   26191.25522433  .00001907  00000+0  27907-3 0  9996
2 68885  51.8997 153.6497 0000755  63.0325 297.0714 14.79937958 10965
KUIPER-00505            
1 68886U 26095Y   26190.96215042  .00002044  00000+0  29711-3 0  9997
2 68886  51.8832 144.9503 0000727  88.7639 271.3407 14.79917336 11059
KUIPER-00507            
1 68887U 26095Z   26191.25002315 -.01116881  00000+0 -10327+0 0  9995
2 68887  51.9201 133.9005 0003066 117.5408 271.2035 14.97377283  4666
KUIPER-00511            
1 68888U 26095AA  26191.25002315  .00064782  00000+0  22044-2 0  9997
2 68888  51.8799 130.9123 0006365  31.5203  54.9056 15.29800845  5277
KUIPER-00512            
1 68889U 26095AB  26190.92565499  .00001394  00000+0  21181-3 0  9990
2 68889  51.9000 147.6093 0000733  93.3620 266.7426 14.79938376 11015
KUIPER-00519            
1 68890U 26095AC  26191.25002315 -.00012397  00000+0 -15065-2 0  9992
2 68890  51.9006 136.2635 0002428  80.7289 137.1051 14.82431830  4848
KUIPER-00521            
1 68891U 26095AD  26191.25002315 -.00001814  00000+0 -93446-4 0  9996
2 68891  51.8890 131.6981 0001101 157.3527 277.4782 15.09670041  3808
KUIPER-00524            
1 68892U 26095AE  26191.25002315 -.00021255  00000+0 -29776-2 0  9991
2 68892  51.8967 137.3705 0001391 207.8288 173.9204 14.76855595  5822
KUIPER-00370            
1 68919U 26098A   26191.25002315 -.01101263  00000+0 -52477-1 0  9996
2 68919  51.8752 319.3389 0011355 240.4709  79.0964 15.21663520  4167
KUIPER-00380            
1 68920U 26098B   26191.00628297  .00014487  00000+0  50985-3 0  9996
2 68920  51.8758 319.1442 0006734 236.9346 123.0991 15.29541006 10838
KUIPER-00386            
1 68921U 26098C   26190.97639607 -.00276596  00000+0 -89169-2 0  9997
2 68921  51.8749 317.4979 0002978 330.5345  29.5471 15.32775890 10850
KUIPER-00388            
1 68922U 26098D   26191.25002315  .00017995  00000+0  17621-2 0  9998
2 68922  51.8923 321.3070 0016415 226.7065 112.5129 14.92235116  5390
KUIPER-00405            
1 68923U 26098E   26191.25002315 -.01084794  00000+0 -79770-1 0  9995
2 68923  51.8906 319.8269 0010611 253.5806 132.4754 15.05835273  4026
