{"fetched_at":"2026-07-10T18:07:50.152Z","source":"https://celestrak.org/NORAD/elements/gp.php?GROUP=kuiper&FORMAT=JSON","constellation":"kuiper","records":[{"OBJECT_NAME":"KUIPER-00500","OBJECT_ID":"2026-095U","EPOCH":"2026-07-10T06:15:16.491456","CLASSIFICATION_TYPE":"U","MEAN_MOTION":14.79920123,"ECCENTRICITY":0.00015207,"INCLINATION":51.899,"RA_OF_ASC_NODE":148.6269,"ARG_OF_PERICENTER":32.019,"MEAN_ANOMALY":328.0864,"EPHEMERIS_TYPE":0,"NORAD_CAT_ID":68882,"ELEMENT_SET_NO":999,"REV_AT_EPOCH":1103,"BSTAR":0.000040663628,"MEAN_MOTION_DOT":8.9e-7,"MEAN_MOTION_DDOT":0},{"OBJECT_NAME":"KUIPER-00502","OBJECT_ID":"2026-095V","EPOCH":"2026-07-10T06:00:02.000160","CLASSIFICATION_TYPE":"U","MEAN_MOTION":15.34427096,"ECCENTRICITY":0.00075328,"INCLINATION":51.8789,"RA_OF_ASC_NODE":130.6681,"ARG_OF_PERICENTER":31.426,"MEAN_ANOMALY":196.7494,"EPHEMERIS_TYPE":0,"NORAD_CAT_ID":68883,"ELEMENT_SET_NO":999,"REV_AT_EPOCH":486,"BSTAR":-0.0092809201,"MEAN_MOTION_DOT":-0.00302653,"MEAN_MOTION_DDOT":0},{"OBJECT_NAME":"KUIPER-00503","OBJECT_ID":"2026-095W","EPOCH":"2026-07-09T19:47:04.321248","CLASSIFICATION_TYPE":"U","MEAN_MOTION":14.7991091,"ECCENTRICITY":0.00004356,"INCLINATION":51.9008,"RA_OF_ASC_NODE":148.0452,"ARG_OF_PERICENTER":152.8721,"MEAN_ANOMALY":207.2264,"EPHEMERIS_TYPE":0,"NORAD_CAT_ID":68884,"ELEMENT_SET_NO":999,"REV_AT_EPOCH":1100,"BSTAR":0.00021312746,"MEAN_MOTION_DOT":0.00001403,"MEAN_MOTION_DDOT":0},{"OBJECT_NAME":"KUIPER-00504","OBJECT_ID":"2026-095X","EPOCH":"2026-07-10T06:07:31.382112","CLASSIFICATION_TYPE":"U","MEAN_MOTION":14.79937958,"ECCENTRICITY":0.00007552,"INCLINATION":51.8997,"RA_OF_ASC_NODE":153.6497,"ARG_OF_PERICENTER":63.0325,"MEAN_ANOMALY":297.0714,"EPHEMERIS_TYPE":0,"NORAD_CAT_ID":68885,"ELEMENT_SET_NO":999,"REV_AT_EPOCH":1096,"BSTAR":0.00027906761,"MEAN_MOTION_DOT":0.00001907,"MEAN_MOTION_DDOT":0},{"OBJECT_NAME":"KUIPER-00505","OBJECT_ID":"2026-095Y","EPOCH":"2026-07-09T23:05:29.796288","CLASSIFICATION_TYPE":"U","MEAN_MOTION":14.79917336,"ECCENTRICITY":0.00007277,"INCLINATION":51.8832,"RA_OF_ASC_NODE":144.9503,"ARG_OF_PERICENTER":88.7639,"MEAN_ANOMALY":271.3407,"EPHEMERIS_TYPE":0,"NORAD_CAT_ID":68886,"ELEMENT_SET_NO":999,"REV_AT_EPOCH":1105,"BSTAR":0.00029710735,"MEAN_MOTION_DOT":0.00002044,"MEAN_MOTION_DDOT":0},{"OBJECT_NAME":"KUIPER-00507","OBJECT_ID":"2026-095Z","EPOCH":"2026-07-10T06:00:02.000160","CLASSIFICATION_TYPE":"U","MEAN_MOTION":14.97377283,"ECCENTRICITY":0.00030664,"INCLINATION":51.9201,"RA_OF_ASC_NODE":133.9005,"ARG_OF_PERICENTER":117.5408,"MEAN_ANOMALY":271.2035,"EPHEMERIS_TYPE":0,"NORAD_CAT_ID":68887,"ELEMENT_SET_NO":999,"REV_AT_EPOCH":466,"BSTAR":-0.10326631,"MEAN_MOTION_DOT":-0.01116881,"MEAN_MOTION_DDOT":0},{"OBJECT_NAME":"KUIPER-00511","OBJECT_ID":"2026-095AA","EPOCH":"2026-07-10T06:00:02.000160","CLASSIFICATION_TYPE":"U","MEAN_MOTION":15.29800845,"ECCENTRICITY":0.00063657,"INCLINATION":51.8799,"RA_OF_ASC_NODE":130.9123,"ARG_OF_PERICENTER":31.5203,"MEAN_ANOMALY":54.9056,"EPHEMERIS_TYPE":0,"NORAD_CAT_ID":68888,"ELEMENT_SET_NO":999,"REV_AT_EPOCH":527,"BSTAR":0.0022043808,"MEAN_MOTION_DOT":0.00064782,"MEAN_MOTION_DDOT":0},{"OBJECT_NAME":"KUIPER-00512","OBJECT_ID":"2026-095AB","EPOCH":"2026-07-09T22:12:56.591136","CLASSIFICATION_TYPE":"U","MEAN_MOTION":14.79938376,"ECCENTRICITY":0.00007334,"INCLINATION":51.9,"RA_OF_ASC_NODE":147.6093,"ARG_OF_PERICENTER":93.362,"MEAN_ANOMALY":266.7426,"EPHEMERIS_TYPE":0,"NORAD_CAT_ID":68889,"ELEMENT_SET_NO":999,"REV_AT_EPOCH":1101,"BSTAR":0.00021181492,"MEAN_MOTION_DOT":0.00001394,"MEAN_MOTION_DDOT":0},{"OBJECT_NAME":"KUIPER-00519","OBJECT_ID":"2026-095AC","EPOCH":"2026-07-10T06:00:02.000160","CLASSIFICATION_TYPE":"U","MEAN_MOTION":14.8243183,"ECCENTRICITY":0.00024287,"INCLINATION":51.9006,"RA_OF_ASC_NODE":136.2635,"ARG_OF_PERICENTER":80.7289,"MEAN_ANOMALY":137.1051,"EPHEMERIS_TYPE":0,"NORAD_CAT_ID":68890,"ELEMENT_SET_NO":999,"REV_AT_EPOCH":484,"BSTAR":-0.0015064823,"MEAN_MOTION_DOT":-0.00012397,"MEAN_MOTION_DDOT":0},{"OBJECT_NAME":"KUIPER-00521","OBJECT_ID":"2026-095AD","EPOCH":"2026-07-10T06:00:02.000160","CLASSIFICATION_TYPE":"U","MEAN_MOTION":15.09670041,"ECCENTRICITY":0.00011019,"INCLINATION":51.889,"RA_OF_ASC_NODE":131.6981,"ARG_OF_PERICENTER":157.3527,"MEAN_ANOMALY":277.4782,"EPHEMERIS_TYPE":0,"NORAD_CAT_ID":68891,"ELEMENT_SET_NO":999,"REV_AT_EPOCH":380,"BSTAR":-0.000093446138,"MEAN_MOTION_DOT":-0.00001814,"MEAN_MOTION_DDOT":0},{"OBJECT_NAME":"KUIPER-00524","OBJECT_ID":"2026-095AE","EPOCH":"2026-07-10T06:00:02.000160","CLASSIFICATION_TYPE":"U","MEAN_MOTION":14.76855595,"ECCENTRICITY":0.00013918,"INCLINATION":51.8967,"RA_OF_ASC_NODE":137.3705,"ARG_OF_PERICENTER":207.8288,"MEAN_ANOMALY":173.9204,"EPHEMERIS_TYPE":0,"NORAD_CAT_ID":68892,"ELEMENT_SET_NO":999,"REV_AT_EPOCH":582,"BSTAR":-0.0029776251,"MEAN_MOTION_DOT":-0.00021255,"MEAN_MOTION_DDOT":0},{"OBJECT_NAME":"KUIPER-00370","OBJECT_ID":"2026-098A","EPOCH":"2026-07-10T06:00:02.000160","CLASSIFICATION_TYPE":"U","MEAN_MOTION":15.2166352,"ECCENTRICITY":0.00113554,"INCLINATION":51.8752,"RA_OF_ASC_NODE":319.3389,"ARG_OF_PERICENTER":240.4709,"MEAN_ANOMALY":79.0964,"EPHEMERIS_TYPE":0,"NORAD_CAT_ID":68919,"ELEMENT_SET_NO":999,"REV_AT_EPOCH":416,"BSTAR":-0.052476599,"MEAN_MOTION_DOT":-0.01101263,"MEAN_MOTION_DDOT":0},{"OBJECT_NAME":"KUIPER-00380","OBJECT_ID":"2026-098B","EPOCH":"2026-07-10T00:09:02.848608","CLASSIFICATION_TYPE":"U","MEAN_MOTION":15.29541006,"ECCENTRICITY":0.00067349,"INCLINATION":51.8758,"RA_OF_ASC_NODE":319.1442,"ARG_OF_PERICENTER":236.9346,"MEAN_ANOMALY":123.0991,"EPHEMERIS_TYPE":0,"NORAD_CAT_ID":68920,"ELEMENT_SET_NO":999,"REV_AT_EPOCH":1083,"BSTAR":0.00050984525,"MEAN_MOTION_DOT":0.00014487,"MEAN_MOTION_DDOT":0},{"OBJECT_NAME":"KUIPER-00386","OBJECT_ID":"2026-098C","EPOCH":"2026-07-09T23:26:00.620448","CLASSIFICATION_TYPE":"U","MEAN_MOTION":15.3277589,"ECCENTRICITY":0.00029788,"INCLINATION":51.8749,"RA_OF_ASC_NODE":317.4979,"ARG_OF_PERICENTER":330.5345,"MEAN_ANOMALY":29.5471,"EPHEMERIS_TYPE":0,"NORAD_CAT_ID":68921,"ELEMENT_SET_NO":999,"REV_AT_EPOCH":1085,"BSTAR":-0.0089169324,"MEAN_MOTION_DOT":-0.00276596,"MEAN_MOTION_DDOT":0},{"OBJECT_NAME":"KUIPER-00388","OBJECT_ID":"2026-098D","EPOCH":"2026-07-10T06:00:02.000160","CLASSIFICATION_TYPE":"U","MEAN_MOTION":14.92235116,"ECCENTRICITY":0.00164154,"INCLINATION":51.8923,"RA_OF_ASC_NODE":321.307,"ARG_OF_PERICENTER":226.7065,"MEAN_ANOMALY":112.5129,"EPHEMERIS_TYPE":0,"NORAD_CAT_ID":68922,"ELEMENT_SET_NO":999,"REV_AT_EPOCH":539,"BSTAR":0.0017620736,"MEAN_MOTION_DOT":0.00017995,"MEAN_MOTION_DDOT":0},{"OBJECT_NAME":"KUIPER-00405","OBJECT_ID":"2026-098E","EPOCH":"2026-07-10T06:00:02.000160","CLASSIFICATION_TYPE":"U","MEAN_MOTION":15.05835273,"ECCENTRICITY":0.00106117,"INCLINATION":51.8906,"RA_OF_ASC_NODE":319.8269,"ARG_OF_PERICENTER":253.5806,"MEAN_ANOMALY":132.4754,"EPHEMERIS_TYPE":0,"NORAD_CAT_ID":68923,"ELEMENT_SET_NO":999,"REV_AT_EPOCH":402,"BSTAR":-0.079769701,"MEAN_MOTION_DOT":-0.01084794,"MEAN_MOTION_DDOT":0}]}
